     4.02           NAVIGATION DATA     M                   RINEX VERSION / TYPE
cssrlib             Unknown             20250218 135233 UTC PGM / RUN BY / DATE 
    18                                                      LEAP SECONDS        
                                                            END OF HEADER       
J04 2025 02 15 14 00 00-1.215375959873E-07-1.136868377216E-13 0.000000000000E+00
     1.810000000000E+02-8.437500000000E-01 2.440101640028E-09 2.338985247095E+00
    -2.063810825348E-06 7.487951871008E-02-2.215243875980E-05 6.492966796875E+03
     5.688000000000E+05-2.557411789894E-06-9.139412523159E-01 1.043081283569E-06
     6.360545898610E-01 8.284062500000E+02-1.588501083652E+00-2.715113095359E-09
    -8.668218208939E-10 2.000000000000E+00 2.353000000000E+03 1.000000000000E+00
     2.800000000000E+00 1.000000000000E+00-3.259629011154E-09 9.490000000000E+02
     5.652060000000E+05 0.000000000000E+00                                      
> EPH J03 LNAV
J03 2025 02 15 14 00 00-5.462206900120E-07-1.136868377216E-13 0.000000000000E+00
     1.810000000000E+02 2.520000000000E+02 1.718285859217E-09-2.167416385729E+00
     4.891306161880E-06 7.454538380262E-02 3.209896385670E-05 6.493112533569E+03
     5.688000000000E+05-5.960464477539E-08-2.610806513679E+00-5.029141902924E-07
     7.052684011684E-01-8.677187500000E+02-1.578281282779E+00-1.545064358132E-09
     1.464346710204E-11 2.000000000000E+00 2.353000000000E+03 1.000000000000E+00
     2.800000000000E+00 1.000000000000E+00 9.313225746155E-10 9.490000000000E+02
     5.652060000000E+05 0.000000000000E+00                                      
> EPH G06 CNAV
G06 2025 02 15 13 30 00-1.891696301755E-04-2.478728333699E-11 0.000000000000E+00
    -6.093978881836E-04 8.085937500000E+00 3.534075779870E-09-3.001275933407E+00
     4.237517714500E-07 3.482776461169E-03 1.249555498362E-05 5.153792768476E+03
     4.842000000000E+05 6.705522537231E-08-2.597802073112E+00 1.033768057823E-07
     9.894168664868E-01 1.574062500000E+02-6.749958789392E-01-7.545257810896E-09
    -1.141118960756E-10-1.918327673905E-15-7.000000000000E+00 2.000000000000E+00
    -1.000000000000E+00 1.000000000000E+00 3.725290298462E-09 7.000000000000E+00
     3.201421350241E-10-3.929017111659E-09 1.775333657861E-09 2.211891114712E-09
     5.652120000000E+05 2.353000000000E+03 0.000000000000E+00                   
> EPH G11 CNAV
G11 2025 02 15 13 30 00-7.469723059330E-04 2.412292587906E-12 0.000000000000E+00
     3.501892089844E-03 9.515625000000E+00 4.005166831275E-09-1.857012692650E+00
     4.842877388000E-07 1.708371739369E-03 1.172535121441E-05 5.153617679791E+03
     5.274000000000E+05 3.539025783539E-08-2.570633966183E+00-1.043081283569E-07
     9.660995958917E-01 1.566132812500E+02-2.333942428768E+00-7.740444512634E-09
    -4.893060958486E-11-2.408809181437E-14-6.000000000000E+00 2.000000000000E+00
    -3.000000000000E+00 1.000000000000E+00-8.847564458847E-09 7.000000000000E+00
    -2.037268131971E-10 5.675246939063E-09 3.783497959375E-10 2.328306436539E-10
     5.652120000000E+05 2.353000000000E+03 0.000000000000E+00                   
> EPH G09 CNAV
G09 2025 02 15 13 25 00 5.679536552634E-04 1.368150037706E-11 0.000000000000E+00
     8.859634399414E-04-7.432031250000E+01 4.821629411647E-09-4.765079746412E-01
    -3.859400749207E-06 3.073953441344E-03 5.044043064117E-06 5.153763029028E+03
     5.571000000000E+05-2.235174179077E-08-5.474185149099E-01 6.519258022308E-09
     9.609291101659E-01 2.827460937500E+02 2.031055063219E+00-8.414043999327E-09
    -2.405457339811E-10-2.439328030795E-14-6.000000000000E+00 1.000000000000E+00
    -5.000000000000E+00 1.000000000000E+00 9.313225746155E-10 7.000000000000E+00
    -5.820766091347E-10-1.018634065986E-09 4.685716703534E-09 5.238689482212E-09
     5.652120000000E+05 2.353000000000E+03 0.000000000000E+00                   
> EPH G30 CNAV
G30 2025 02 15 13 30 00-2.155279798899E-04 8.778755500316E-12 0.000000000000E+00
    -8.655071258545E-03-3.476953125000E+01 4.923419365893E-09 2.333010251516E+00
    -1.655891537666E-06 7.398916874081E-03 1.298263669014E-05 5.153742074750E+03
     5.220000000000E+05-9.872019290924E-08 5.216321260604E-01-1.182779669762E-07
     9.360028381495E-01 1.174531250000E+02-2.431004328882E+00-8.085994620468E-09
     6.446697102239E-11 9.168734314140E-14-6.000000000000E+00 2.000000000000E+00
    -2.000000000000E+00 1.000000000000E+00 3.725290298462E-09 7.000000000000E+00
    -1.513399183750E-09-2.968590706587E-09 2.706656232476E-09 3.608874976635E-09
     5.652120000000E+05 2.353000000000E+03 0.000000000000E+00                   
> EPH G04 CNAV
G04 2025 02 15 13 30 00 5.275699077174E-04 5.528022484214E-12 0.000000000000E+00
    -3.309249877930E-03-7.619531250000E+01 4.594834250433E-09-1.330005093856E+00
    -4.000961780548E-06 3.242626553401E-03 5.752779543400E-06 5.153660851081E+03
     5.481000000000E+05 2.514570951462E-08-4.859015098740E-01 8.381903171539E-09
     9.671517602214E-01 2.709257812500E+02-2.926483218173E+00-8.243144023515E-09
    -2.394742607785E-10 2.295453455252E-14-5.000000000000E+00 2.000000000000E+00
    -4.000000000000E+00 1.000000000000E+00-4.656612873077E-09 7.000000000000E+00
    -2.037268131971E-10 3.317836672068E-09-1.426087692380E-09-1.396983861923E-09
     5.652120000000E+05 2.353000000000E+03 0.000000000000E+00                   
> EPH J07 CNAV
J07 2025 02 15 14 00 00 4.153116606176E-08 5.329070518201E-14 0.000000000000E+00
     0.000000000000E+00 4.441914062500E+02 0.000000000000E+00 2.761578555769E+00
     1.473352313042E-05 1.715905964375E-04 2.283882349730E-05 6.493462623574E+03
     5.688000000000E+05-5.541369318962E-07 9.085718053426E-01-1.390464603901E-06
     1.178330773635E-03-7.039687500000E+02 2.325561510800E+00 8.170547987045E-10
     0.000000000000E+00 0.000000000000E+00-3.000000000000E+00 0.000000000000E+00
    -7.000000000000E+00 0.000000000000E+00 6.111804395914E-10 0.000000000000E+00
     0.000000000000E+00 2.415617927909E-09-7.275957614183E-10 5.820766091347E-11
     5.652120000000E+05 2.353000000000E+03 1.000000000000E+00                   
> EPH J04 CNAV
J04 2025 02 15 14 00 00-1.188891474158E-07-8.526512829121E-14 0.000000000000E+00
    -7.132863998413E-02 6.769140625000E+01 3.339246235866E-09 2.338546129559E+00
    -1.111067831516E-06 7.489802595228E-02-2.631545066833E-05 6.492985885325E+03
     5.688000000000E+05 4.190951585770E-08-9.139573963484E-01-3.715977072716E-07
     6.360479343152E-01 1.039355468750E+03-1.588113553727E+00-3.926178490287E-09
    -7.625317625086E-11 2.667783417414E-13-3.000000000000E+00 0.000000000000E+00
    -9.000000000000E+00 0.000000000000E+00-5.529727786779E-10 0.000000000000E+00
     0.000000000000E+00 1.979060471058E-09 9.895302355289E-10 3.492459654808E-10
     5.652120000000E+05 2.353000000000E+03 1.000000000000E+00                   
> EPH J03 CNAV
J03 2025 02 15 14 00 00-5.453475750983E-07-1.456612608308E-13 0.000000000000E+00
    -2.028584480286E-01 3.166367187500E+02 2.287595287526E-09-2.168511112929E+00
     5.642883479595E-06 7.448066904908E-02 4.459824413061E-05 6.493062152724E+03
     5.688000000000E+05 3.809109330177E-07-2.610803291602E+00 2.607703208923E-08
     7.052664927917E-01-1.427003906250E+03-1.577368595985E+00-1.846091846329E-09
    -1.492919328940E-10 7.035684735827E-13-3.000000000000E+00 0.000000000000E+00
    -8.000000000000E+00 0.000000000000E+00 1.629814505577E-09 0.000000000000E+00
     0.000000000000E+00-6.111804395914E-10-1.309672370553E-09-1.542503014207E-09
     5.652120000000E+05 2.353000000000E+03 1.000000000000E+00                   
> EPH C27 CNV2
C27 2025 02 15 13 00 00 4.375852877274E-04 5.030642569182E-12 0.000000000000E+00
    -1.416206359863E-04-6.752343750000E+01 3.776585881389E-09 1.193266726155E+00
    -3.328546881676E-06 6.221193470992E-04 9.762123227119E-06 5.282622076389E+03
     5.652000000000E+05 7.729977369308E-08 3.140074030516E+00-1.769512891769E-08
     9.558169451323E-01 1.628750000000E+02 1.203754074995E+00-6.857071338831E-09
    -5.932389964997E-10 1.000582275366E-14 3.000000000000E+00 5.646000000000E+05
     0.000000000000E+00-5.000000000000E+00 0.000000000000E+00-1.000000000000E+00
                       -2.619344741106E-09-1.396983861923E-09-9.196810424328E-09
     0.000000000000E+00 0.000000000000E+00 0.000000000000E+00 1.700000000000E+01
     5.652000000000E+05                                       1.700000000000E+01
> EPH C41 CNV2
C41 2025 02 15 13 00 00-8.835037588142E-04-9.148237722911E-13 0.000000000000E+00
    -1.281738281250E-03-2.128906250000E+00 3.935163915372E-09 2.390362265143E+00
    -1.201406121254E-07 1.767900888808E-03 2.227723598480E-06 5.282623027695E+03
     5.652000000000E+05 4.190951585770E-08-1.053869972246E+00-1.676380634308E-08
     9.793790321421E-01 3.245820312500E+02-1.296602078350E+00-7.104403069761E-09
     1.139333172086E-10 2.812093976519E-15 3.000000000000E+00 5.646000000000E+05
     0.000000000000E+00-5.000000000000E+00 0.000000000000E+00-1.000000000000E+00
                       -2.677552402020E-09-1.938315108418E-08 5.820766091347E-09
     0.000000000000E+00 0.000000000000E+00 0.000000000000E+00 1.700000000000E+01
     5.652000000000E+05                                       1.700000000000E+01
> EPH C28 CNV2
